PROBA-1                 
1 26958U 01049B   22260.50510936  .00002417  00000+0  20682-3 0  9999
2 26958  97.8317 220.4150 0072356  38.3528 322.2806 14.96565655138178
BIRD 2                  
1 26959U 01049C   22260.52512509  .00014622  00000+0  29719-3 0  9991
2 26959  97.7621 358.6672 0007012  49.4309 310.7549 15.46404373467408
CUTE-1 (CO-55)          
1 27844U 03031E   22260.57164841  .00000222  00000+0  11890-3 0  9997
2 27844  98.6812 266.8758 0009554 188.7711 171.3302 14.22494049996964
CUBESAT XI-IV (CO-57)   
1 27848U 03031J   22260.49311514  .00000178  00000+0  10019-3 0  9995
2 27848  98.6855 267.2984 0009192 203.8883 156.1869 14.22045462996766
GENESIS 1               
1 29252U 06029A   22260.18420943  .00003627  00000+0  16436-3 0  9990
2 29252  64.5211 129.7213 0055232 248.4532 111.0700 15.21301538892920
FALCONSAT-3             
1 30776U 07006E   22260.49410388  .00053949  00000+0  63733-3 0  9999
2 30776  35.4308  14.5271 0001271 136.1338 223.9497 15.60196301863931
GENESIS 2               
1 31789U 07028A   22260.45516735  .00004241  00000+0  19658-3 0  9995
2 31789  64.4963 172.2444 0055676 300.2394  59.3225 15.20209911839888
APRIZESAT 4             
1 35684U 09041D   22260.53963965  .00000571  00000+0  82296-4 0  9991
2 35684  98.3104 277.3392 0047854  57.3140 303.2672 14.79729725708689
APRIZESAT 3             
1 35686U 09041F   22260.49199829  .00000884  00000+0  98579-4 0  9996
2 35686  98.1047 349.2093 0070751 245.1094 114.2756 14.88049685712294
PROBA-2                 
1 36037U 09059B   22260.48304293  .00000144  00000+0  45334-4 0  9998
2 36037  98.2253  85.3543 0013323 180.0572 180.0625 14.53291586682623
APRIZESAT 5             
1 37792U 11044E   22260.37316684  .00000536  00000+0  84150-4 0  9993
2 37792  98.3101 138.4462 0058969  71.6754 289.0857 14.75839148596556
APRIZESAT 6             
1 37793U 11044F   22260.38859703  .00000439  00000+0  76053-4 0  9994
2 37793  98.3906 115.5396 0047583 123.2358  51.6517 14.72853656595390
TET-1                   
1 38710U 12039D   22260.18835021  .00092266  00000+0  45820-3 0  9990
2 38710  97.5024 348.3326 0001122 149.8751 210.2581 15.81709258571859
PROBA-V                 
1 39159U 13021A   22260.33391925  .00000014  00000+0  24308-4 0  9996
2 39159  98.3510 291.5705 0004345 166.6192 193.5103 14.23047975486395
STPSAT-3                
1 39380U 13064A   22260.24813091  .00035070  00000+0  63746-3 0  9990
2 39380  40.4967 203.8900 0009465 254.9487 105.0284 15.48747497493518
APRIZESAT 7             
1 39416U 13066A   22260.49237713  .00000959  00000+0  11789-3 0  9998
2 39416  97.5820 236.0652 0042074  56.1019 304.4187 14.84572051477696
APRIZESAT 8             
1 39425U 13066K   22260.49900053  .00000760  00000+0  10064-3 0  9997
2 39425  97.6369 227.6337 0052989  98.8668 261.8550 14.81710292476596
BUGSAT-1 (TITA)         
1 40014U 14033E   22260.58546649  .00002122  00000+0  18809-3 0  9994
2 40014  98.1464 262.7838 0032119  91.5729 268.9160 14.97011915449926
SAUDISAT 4              
1 40016U 14033G   22260.52238323  .00000474  00000+0  75371-4 0  9993
2 40016  97.6403  90.3070 0047471 201.1446 158.7803 14.75622660443970
APRIZESAT 9             
1 40018U 14033J   22260.41324218  .00000413  00000+0  73914-4 0  9996
2 40018  97.7247  66.1084 0069608 278.4787  80.8535 14.70327158442162
APRIZESAT 10            
1 40019U 14033K   22260.41647468  .00000274  00000+0  54561-4 0  9994
2 40019  97.7804  55.9577 0082995 323.6996  35.8596 14.67365258441282
TDS 1                   
1 40076U 14037H   22260.23389572  .00001809  00000+0  21413-3 0  9994
2 40076  98.3760 138.0140 0007729 126.7331 233.4594 14.85937041443336
TIANTUO 2               
1 40144U 14053B   22260.42650503  .00006658  00000+0  17559-3 0  9997
2 40144  97.1882 338.5649 0009566 220.2769 268.6243 15.38773890449236
TECHNOSAT               
1 42829U 17042E   22260.50320910  .00001101  00000+0  11336-3 0  9990
2 42829  97.4115 109.2374 0015395  62.3499 297.9281 14.92047816281816
FLYING LAPTOP           
1 42831U 17042G   22260.35173029  .00001694  00000+0  17225-3 0  9993
2 42831  97.4135 109.4288 0015254  63.4260 296.8488 14.91931996281793
HAWK-A                  
1 43765U 18099H   22260.43826740  .00001249  00000+0  11242-3 0  9996
2 43765  97.6107 326.0967 0013924 326.7254  33.3092 14.97317268206903
HAWK-B                  
1 43794U 18099AN  22260.17134174  .00001311  00000+0  11775-3 0  9993
2 43794  97.6107 325.8365 0013987 327.8699  32.1669 14.97316825206857
HAWK-C                  
1 43799U 18099AT  22260.43846660  .00001362  00000+0  12219-3 0  9997
2 43799  97.6104 326.0042 0013867 326.6140  33.4207 14.97318464207640
SALSAT                  
1 46495U 20068K   22260.40046566  .00002886  00000+0  20818-3 0  9992
2 46495  97.7333 201.7701 0015717 330.7367  29.2977 15.04846467108011
